{
  "norad_id": 53029,
  "name": "STARLINK-4143",
  "history": [
    {
      "epoch": "2026-03-28T17:01:40.031904Z",
      "apogee_km": 540.8392819150067,
      "perigee_km": 538.6670644006354,
      "latitude_deg": -1.1655900767424378e-06,
      "longitude_deg": -92.80444266704205,
      "height_km": 540.6229003484118,
      "semi_major_axis_km": 6917.890173157821,
      "eccentricity": 0.000157,
      "inclination_deg": 53.22,
      "raan_deg": 348.7384,
      "arg_perigee_deg": 88.6303,
      "mean_anomaly_deg": 271.4869,
      "mean_motion_rev_day": 15.08836799
    },
    {
      "epoch": "2026-03-29T00:58:35.349024Z",
      "apogee_km": 540.7543575640111,
      "perigee_km": 538.7135856273917,
      "latitude_deg": -1.0131608973116815e-05,
      "longitude_deg": 146.15232109781067,
      "height_km": 540.6057655259724,
      "semi_major_axis_km": 6917.870971595701,
      "eccentricity": 0.0001475,
      "inclination_deg": 53.2192,
      "raan_deg": 347.2521,
      "arg_perigee_deg": 88.6552,
      "mean_anomaly_deg": 271.4609,
      "mean_motion_rev_day": 15.08843081
    },
    {
      "epoch": "2026-03-29T23:13:58.699200Z",
      "apogee_km": 540.7715092054987,
      "perigee_km": 538.7055548566132,
      "latitude_deg": 5.108992089031268e-05,
      "longitude_deg": 167.2287332778852,
      "height_km": 540.5301099205775,
      "semi_major_axis_km": 6917.875532031056,
      "eccentricity": 0.00014932,
      "inclination_deg": 53.2193,
      "raan_deg": 343.0898,
      "arg_perigee_deg": 84.2133,
      "mean_anomaly_deg": 275.903,
      "mean_motion_rev_day": 15.08841589
    },
    {
      "epoch": "2026-03-30T10:21:41.820192Z",
      "apogee_km": 540.7092507065727,
      "perigee_km": 538.8412760372175,
      "latitude_deg": 4.131188072092396e-05,
      "longitude_deg": -2.239081474936728,
      "height_km": 540.6079154524604,
      "semi_major_axis_km": 6917.912263371895,
      "eccentricity": 0.00013501,
      "inclination_deg": 53.2191,
      "raan_deg": 341.0087,
      "arg_perigee_deg": 86.1173,
      "mean_anomaly_deg": 273.9974,
      "mean_motion_rev_day": 15.08829572
    }
  ]
}